[{"OBJECT_NAME":"SENTINEL-2A","OBJECT_ID":"2015-028A","EPOCH":"2026-02-25T04:19:12.423360","MEAN_MOTION":14.30192923,"ECCENTRICITY":0.00543683,"INCLINATION":98.5024,"RA_OF_ASC_NODE":132.8928,"ARG_OF_PERICENTER":194.7437,"MEAN_ANOMALY":165.2162,"EPHEMERIS_TYPE":0,"CLASSIFICATION_TYPE":"U","NORAD_CAT_ID":40697,"ELEMENT_SET_NO":999,"REV_AT_EPOCH":55771,"BSTAR":7.6852184e-5,"MEAN_MOTION_DOT":1.59e-6,"MEAN_MOTION_DDOT":0},{"OBJECT_NAME":"SL-14 DEB","OBJECT_ID":"1987-068DL","EPOCH":"2026-03-08T12:46:47.917056","MEAN_MOTION":14.3524371,"ECCENTRICITY":0.00115122,"INCLINATION":82.8288,"RA_OF_ASC_NODE":357.553,"ARG_OF_PERICENTER":44.7902,"MEAN_ANOMALY":315.4215,"EPHEMERIS_TYPE":0,"CLASSIFICATION_TYPE":"U","NORAD_CAT_ID":39984,"ELEMENT_SET_NO":999,"REV_AT_EPOCH":60877,"BSTAR":0.0024375317,"MEAN_MOTION_DOT":6.998e-5,"MEAN_MOTION_DDOT":0}]
